OBJECT_NAME,OBJECT_ID,EPOCH,MEAN_MOTION,ECCENTRICITY,INCLINATION,RA_OF_ASC_NODE,ARG_OF_PERICENTER,MEAN_ANOMALY,EPHEMERIS_TYPE,CLASSIFICATION_TYPE,NORAD_CAT_ID,ELEMENT_SET_NO,REV_AT_EPOCH,BSTAR,MEAN_MOTION_DOT,MEAN_MOTION_DDOT
ONEWEB-0336,2021-083S,2026-06-20T03:40:55.217568,13.13463220,.00021732,87.8955,319.6368,91.5722,268.5656,0,U,49202,999,23130,-.23934107E-2,-.861E-5,0
ONEWEB-0337,2021-083T,2026-06-20T03:55:20.721792,13.13471332,.00020358,87.8952,319.6408,98.1557,261.9803,0,U,49203,999,23130,.88881489E-3,.337E-5,0
ONEWEB-0338,2021-083U,2026-06-20T07:10:02.693856,13.20774186,.00017269,87.9185,273.8284,105.3850,254.7474,0,U,49204,999,23722,.18633401E-3,.89E-6,0
ONEWEB-0339,2021-083V,2026-06-19T22:38:38.282496,13.13469950,.00016954,87.8955,319.6771,105.8363,254.2953,0,U,49205,999,23125,.87716086E-3,.333E-5,0
ONEWEB-0340,2021-083W,2026-06-20T04:02:46.087872,13.18685628,.00019836,87.9174,334.8620,91.1892,268.9467,0,U,49206,999,23036,.11320906E-3,.58E-6,0
ONEWEB-0341,2021-083X,2026-06-20T04:12:28.966464,13.18685090,.00023098,87.9167,334.8637,101.1200,259.0192,0,U,49207,999,23038,-.27243521E-3,-.94E-6,0
ONEWEB-0342,2021-083Y,2026-06-20T07:19:45.709824,13.20771208,.00019444,87.9195,273.8152,103.4902,256.6448,0,U,49208,999,23719,.31143336E-3,.14E-5,0
ONEWEB-0343,2021-083Z,2026-06-19T22:56:50.240256,13.18686467,.00016694,87.9166,334.9060,106.8814,253.2502,0,U,49209,999,23040,.11752892E-3,.59E-6,0
ONEWEB-0344,2021-083AA,2026-06-20T04:00:23.419008,13.13472247,.00021523,87.8949,319.6461,105.2099,254.9268,0,U,49210,999,23128,.92372651E-3,.35E-5,0
ONEWEB-0345,2021-083AB,2026-06-20T03:48:12.543264,13.13471539,.00020606,87.8964,319.6299,102.5036,257.6324,0,U,49211,999,23129,.85939906E-3,.327E-5,0
ONEWEB-0346,2021-083AC,2026-06-20T04:19:45.966432,13.18685828,.00022371,87.9162,334.8616,79.0390,281.0993,0,U,49212,999,23037,.17291196E-3,.81E-6,0
ONEWEB-0348,2021-083AD,2026-06-20T07:05:12.908256,13.20771257,.00024753,87.9198,273.8210,94.4112,265.7305,0,U,49213,999,23722,.16475355E-3,.8E-6,0
ONEWEB-0350,2021-083AE,2026-06-20T04:13:55.725024,13.12942796,.00021197,87.8961,319.6313,99.0573,261.0796,0,U,49214,999,23132,.10074082E-2,.378E-5,0
ONEWEB-0351,2021-083AF,2026-06-20T06:55:18.594624,13.20770728,.0002181,87.9198,273.8212,124.6631,235.4708,0,U,49215,999,23718,.14630713E-3,.72E-6,0
ONEWEB-0352,2021-083AG,2026-06-20T03:33:35.710272,13.13470607,.00017435,87.8955,319.6426,110.7918,249.3398,0,U,49216,999,23141,-.37879098E-3,-.126E-5,0
ONEWEB-0354,2021-083AH,2026-06-20T05:45:12.484512,13.20773266,.000243,87.9198,273.8299,98.8628,261.2781,0,U,49217,999,23721,.26984488E-3,.123E-5,0
ONEWEB-0355,2021-083AJ,2026-06-20T04:15:14.716224,13.13469558,.00019283,87.8954,319.6378,106.2694,253.8648,0,U,49218,999,23129,.78517897E-3,.299E-5,0
ONEWEB-0357,2021-083AK,2026-06-20T05:40:21.650016,13.20772881,.00020072,87.9199,273.8250,106.5183,253.6171,0,U,49219,999,23721,.20196659E-3,.95E-6,0
ONEWEB-0332,2021-090A,2026-06-20T06:19:12.759168,13.14501746,.00017022,87.8968,289.0957,102.0727,258.0594,0,U,49279,999,22798,-.49876087E-4,-.6E-7,0
ONEWEB-0347,2021-090B,2026-06-20T07:14:54.801024,13.20771684,.00017687,87.9195,273.8198,101.5168,258.6164,0,U,49280,999,23145,.26797562E-3,.122E-5,0
ONEWEB-0349,2021-090C,2026-06-20T04:22:47.457408,13.20772453,.00020279,87.9197,273.8442,101.0836,259.0526,0,U,49281,999,23022,.71328424E-4,.42E-6,0
ONEWEB-0353,2021-090D,2026-06-19T20:59:45.471840,13.14502814,.00016547,87.8969,289.1688,101.5886,258.5429,0,U,49282,999,22793,.69469346E-4,.39E-6,0
ONEWEB-0356,2021-090E,2026-06-19T19:14:54.133152,13.20773323,.00019821,87.9196,273.9133,77.1821,282.9533,0,U,49283,999,23017,.40274623E-4,.29E-6,0
ONEWEB-0358,2021-090F,2026-06-20T06:58:39.739872,13.20237720,.00021021,87.9199,273.8221,95.1699,264.9674,0,U,49284,999,23096,.15392389E-3,.75E-6,0
ONEWEB-0359,2021-090G,2026-06-20T06:48:13.774464,13.20773440,.0002271,87.9197,273.8173,98.3142,261.8249,0,U,49285,999,23094,.91861839E-4,.5E-6,0
ONEWEB-0360,2021-090H,2026-06-20T06:33:40.678272,13.20769447,.00020862,87.9196,273.8255,102.7407,257.3960,0,U,49286,999,23025,-.63971277E-4,-.13E-6,0
ONEWEB-0361,2021-090J,2026-06-19T19:12:29.313792,13.20771204,.00021003,87.9197,273.9181,98.0775,262.0597,0,U,49287,999,23064,.6546555E-4,.4E-6,0
ONEWEB-0362,2021-090K,2026-06-20T06:51:25.976448,13.19724250,.00019605,87.9173,304.3604,107.1554,252.9794,0,U,49288,999,22732,-.5786387E-4,-.1E-6,0
ONEWEB-0363,2021-090L,2026-06-20T06:28:50.618784,13.20770440,.00019973,87.9198,273.8249,90.8704,269.2658,0,U,49289,999,23071,-.64883859E-4,-.13E-6,0
ONEWEB-0364,2021-090M,2026-06-20T07:24:36.209088,13.20772641,.00020432,87.9197,273.8252,100.9236,259.2127,0,U,49290,999,23185,-.14959018E-3,-.48E-6,0
