ONEWEB-0336             
1 49202U 21083S   26171.15341687 -.00000861  00000+0 -23934-2 0  9992
2 49202  87.8955 319.6368 0002173  91.5722 268.5656 13.13463220231308
ONEWEB-0337             
1 49203U 21083T   26171.16343428  .00000337  00000+0  88881-3 0  9998
2 49203  87.8952 319.6408 0002035  98.1557 261.9803 13.13471332231301
ONEWEB-0338             
1 49204U 21083U   26171.29864229  .00000089  00000+0  18633-3 0  9992
2 49204  87.9185 273.8284 0001726 105.3850 254.7474 13.20774186237229
ONEWEB-0339             
1 49205U 21083V   26170.94349864  .00000333  00000+0  87716-3 0  9997
2 49205  87.8955 319.6771 0001695 105.8363 254.2953 13.13469950231259
ONEWEB-0340             
1 49206U 21083W   26171.16858898  .00000058  00000+0  11321-3 0  9998
2 49206  87.9174 334.8620 0001983  91.1892 268.9467 13.18685628230360
ONEWEB-0341             
1 49207U 21083X   26171.17533526 -.00000094  00000+0 -27244-3 0  9991
2 49207  87.9167 334.8637 0002309 101.1200 259.0192 13.18685090230380
ONEWEB-0342             
1 49208U 21083Y   26171.30539016  .00000140  00000+0  31143-3 0  9990
2 49208  87.9195 273.8152 0001944 103.4902 256.6448 13.20771208237197
ONEWEB-0343             
1 49209U 21083Z   26170.95613704  .00000059  00000+0  11753-3 0  9992
2 49209  87.9166 334.9060 0001669 106.8814 253.2502 13.18686467230406
ONEWEB-0344             
1 49210U 21083AA  26171.16693772  .00000350  00000+0  92373-3 0  9992
2 49210  87.8949 319.6461 0002152 105.2099 254.9268 13.13472247231285
ONEWEB-0345             
1 49211U 21083AB  26171.15847851  .00000327  00000+0  85940-3 0  9997
2 49211  87.8964 319.6299 0002060 102.5036 257.6324 13.13471539231298
ONEWEB-0346             
1 49212U 21083AC  26171.18039313  .00000081  00000+0  17291-3 0  9998
2 49212  87.9162 334.8616 0002237  79.0390 281.0993 13.18685828230373
ONEWEB-0348             
1 49213U 21083AD  26171.29528829  .00000080  00000+0  16475-3 0  9998
2 49213  87.9198 273.8210 0002475  94.4112 265.7305 13.20771257237224
ONEWEB-0350             
1 49214U 21083AE  26171.17633941  .00000378  00000+0  10074-2 0  9996
2 49214  87.8961 319.6313 0002119  99.0573 261.0796 13.12942796231329
ONEWEB-0351             
1 49215U 21083AF  26171.28840966  .00000072  00000+0  14631-3 0  9991
2 49215  87.9198 273.8212 0002181 124.6631 235.4708 13.20770728237182
ONEWEB-0352             
1 49216U 21083AG  26171.14832998 -.00000126  00000+0 -37879-3 0  9994
2 49216  87.8955 319.6426 0001743 110.7918 249.3398 13.13470607231410
ONEWEB-0354             
1 49217U 21083AH  26171.23972783  .00000123  00000+0  26984-3 0  9992
2 49217  87.9198 273.8299 0002430  98.8628 261.2781 13.20773266237216
ONEWEB-0355             
1 49218U 21083AJ  26171.17725366  .00000299  00000+0  78518-3 0  9993
2 49218  87.8954 319.6378 0001928 106.2694 253.8648 13.13469558231290
ONEWEB-0357             
1 49219U 21083AK  26171.23636169  .00000095  00000+0  20197-3 0  9997
2 49219  87.9199 273.8250 0002007 106.5183 253.6171 13.20772881237219
ONEWEB-0332             
1 49279U 21090A   26171.26334212 -.00000006  00000+0 -49876-4 0  9998
2 49279  87.8968 289.0957 0001702 102.0727 258.0594 13.14501746227981
ONEWEB-0347             
1 49280U 21090B   26171.30202316  .00000122  00000+0  26798-3 0  9998
2 49280  87.9195 273.8198 0001768 101.5168 258.6164 13.20771684231452
ONEWEB-0349             
1 49281U 21090C   26171.18249372  .00000042  00000+0  71328-4 0  9999
2 49281  87.9197 273.8442 0002027 101.0836 259.0526 13.20772453230229
ONEWEB-0353             
1 49282U 21090D   26170.87483185  .00000039  00000+0  69469-4 0  9996
2 49282  87.8969 289.1688 0001654 101.5886 258.5429 13.14502814227938
ONEWEB-0356             
1 49283U 21090E   26170.80201543  .00000029  00000+0  40275-4 0  9999
2 49283  87.9196 273.9133 0001982  77.1821 282.9533 13.20773323230178
ONEWEB-0358             
1 49284U 21090F   26171.29073773  .00000075  00000+0  15392-3 0  9998
2 49284  87.9199 273.8221 0002102  95.1699 264.9674 13.20237720230966
ONEWEB-0359             
1 49285U 21090G   26171.28349276  .00000050  00000+0  91862-4 0  9992
2 49285  87.9197 273.8173 0002271  98.3142 261.8249 13.20773440230942
ONEWEB-0360             
1 49286U 21090H   26171.27338748 -.00000013  00000+0 -63971-4 0  9995
2 49286  87.9196 273.8255 0002086 102.7407 257.3960 13.20769447230257
ONEWEB-0361             
1 49287U 21090J   26170.80033928  .00000040  00000+0  65466-4 0  9995
2 49287  87.9197 273.9181 0002100  98.0775 262.0597 13.20771204230646
ONEWEB-0362             
1 49288U 21090K   26171.28571732 -.00000010  00000+0 -57864-4 0  9991
2 49288  87.9173 304.3604 0001960 107.1554 252.9794 13.19724250227325
ONEWEB-0363             
1 49289U 21090L   26171.27003031 -.00000013  00000+0 -64884-4 0  9996
2 49289  87.9198 273.8249 0001997  90.8704 269.2658 13.20770440230714
ONEWEB-0364             
1 49290U 21090M   26171.30875242 -.00000048  00000+0 -14959-3 0  9998
2 49290  87.9197 273.8252 0002043 100.9236 259.2127 13.20772641231856
